NORAD_CAT_ID,OBJECT_NAME,OBJECT_TYPE,EPOCH,MEAN_MOTION,ECCENTRICITY,INCLINATION,RA_OF_ASC_NODE,ARG_OF_PERICENTER,MEAN_ANOMALY,BSTAR,MEAN_MOTION_DOT,MEAN_MOTION_DDOT,TLE_LINE0,TLE_LINE1,TLE_LINE2,SEMIMAJOR_AXIS,PERIOD,APOGEE,PERIGEE,DECAYED
53252.0,STARLINK-4132,PAYLOAD,2023-02-21 06:35:44,15.08857265,0.0001099,53.2138,147.9484,103.8557,256.2558,0.0013397,0.00021108,0.0,0 STARLINK-4132,1 53252U 22086L   23052.27481719  .00021108  00000-0  13397-2 0  9993,2 53252  53.2138 147.9484 0001099 103.8557 256.2558 15.08857265 32944,6917.828,95.436,540.453,538.932,0.0
53252.0,STARLINK-4132,PAYLOAD,2023-02-21 12:57:16,15.08859306,0.0001094,53.2147,146.7595,98.6404,261.4712,0.0018167,0.00028758,0.0,0 STARLINK-4132,1 53252U 22086L   23052.53977571  .00028758  00000-0  18167-2 0  9996,2 53252  53.2147 146.7595 0001094  98.6404 261.4712 15.08859306 33186,6917.821,95.436,540.443,538.93,0.0
53252.0,STARLINK-4132,PAYLOAD,2023-02-21 17:43:25,15.08870463,0.0001194,53.2149,145.867,96.7664,263.3464,0.0018754,0.0002971,0.0,0 STARLINK-4132,1 53252U 22086L   23052.73849218  .00029710  00000-0  18754-2 0  9995,2 53252  53.2149 145.8670 0001194  96.7664 263.3464 15.08870463 33216,6917.787,95.436,540.478,538.826,0.0
53252.0,STARLINK-4132,PAYLOAD,2023-02-22 11:12:40,15.0884775,0.0001339,53.2148,142.5956,103.3337,256.7805,0.0012646,0.000199,0.0,0 STARLINK-4132,1 53252U 22086L   23053.46713624  .00019900  00000-0  12646-2 0  9991,2 53252  53.2148 142.5956 0001339 103.3337 256.7805 15.08847750 33127,6917.857,95.437,540.648,538.795,0.0
53252.0,STARLINK-4132,PAYLOAD,2023-02-22 12:48:03,15.0884652,0.0001268,53.2146,142.2989,98.633,261.4806,0.0012426,0.00019547,0.0,0 STARLINK-4132,1 53252U 22086L   23053.53337634  .00019547  00000-0  12426-2 0  9995,2 53252  53.2146 142.2989 0001268  98.6330 261.4806 15.08846520 33339,6917.86,95.437,540.603,538.848,0.0
53252.0,STARLINK-4132,PAYLOAD,2023-02-22 22:20:22,15.08830549,9.7e-05,53.2141,140.5143,103.9656,256.1444,0.00029085,4.343e-05,0.0,0 STARLINK-4132,1 53252U 22086L   23053.93081837  .00004343  00000-0  29085-3 0  9998,2 53252  53.2141 140.5143 0000970 103.9656 256.1444 15.08830549 33396,6917.909,95.438,540.445,539.103,0.0
53252.0,STARLINK-4132,PAYLOAD,2023-02-23 11:03:28,15.08844274,0.0001099,53.2142,138.135,90.6808,269.431,0.0016992,0.00026861,0.0,0 STARLINK-4132,1 53252U 22086L   23054.46074132  .00026861  00000-0  16992-2 0  9998,2 53252  53.2142 138.1350 0001099  90.6808 269.4310 15.08844274 33472,6917.867,95.437,540.493,538.972,0.0
53252.0,STARLINK-4132,PAYLOAD,2023-02-23 15:49:37,15.08855175,0.0001113,53.2142,137.2429,89.0564,271.0556,0.0019495,0.00030888,0.0,0 STARLINK-4132,1 53252U 22086L   23054.65946026  .00030888  00000-0  19495-2 0  9994,2 53252  53.2142 137.2429 0001113  89.0564 271.0556 15.08855175 33504,6917.834,95.437,540.469,538.929,0.0
53252.0,STARLINK-4132,PAYLOAD,2023-02-24 14:05:01,15.08846443,0.0001402,53.2135,133.0818,83.8483,276.2669,0.00099354,0.00015562,0.0,0 STARLINK-4132,1 53252U 22086L   23055.58682299  .00015562  00000-0  99354-3 0  9991,2 53252  53.2135 133.0818 0001402  83.8483 276.2669 15.08846443 33640,6917.861,95.437,540.696,538.756,0.0
53252.0,STARLINK-4132,PAYLOAD,2023-02-24 17:15:47,15.08852427,0.000146,53.2136,132.4853,87.5625,272.5534,0.00077848,0.00012127,0.0,0 STARLINK-4132,1 53252U 22086L   23055.71930133  .00012127  00000-0  77848-3 0  9997,2 53252  53.2136 132.4853 0001460  87.5625 272.5534 15.08852427 33667,6917.842,95.437,540.717,538.697,0.0
53252.0,STARLINK-4132,PAYLOAD,2023-02-24 22:01:57,15.08823714,8.82e-05,53.2136,131.592,107.083,253.0259,-0.00022759,-3.906e-05,0.0,0 STARLINK-4132,1 53252U 22086L   23055.91802539 -.00003906  00000-0 -22759-3 0  9995,2 53252  53.2136 131.5920 0000882 107.0830 253.0259 15.08823714 33491,6917.93,95.439,540.405,539.185,0.0
53252.0,STARLINK-4132,PAYLOAD,2023-02-25 13:55:48,15.08842576,0.0001057,53.2134,128.6188,95.7261,264.3852,0.00067704,0.00010504,0.0,0 STARLINK-4132,1 53252U 22086L   23056.58042814  .00010504  00000-0  67704-3 0  9990,2 53252  53.2134 128.6188 0001057  95.7261 264.3852 15.08842576 33590,6917.873,95.437,540.469,539.006,0.0
53252.0,STARLINK-4132,PAYLOAD,2023-02-25 21:52:44,15.08847939,0.0001069,53.2125,127.1316,92.3895,267.7219,0.0013526,0.00021309,0.0,0 STARLINK-4132,1 53252U 22086L   23056.91162983  .00021309  00000-0  13526-2 0  9994,2 53252  53.2125 127.1316 0001069  92.3895 267.7219 15.08847939 33846,6917.856,95.437,540.461,538.982,0.0
53252.0,STARLINK-4132,PAYLOAD,2023-02-26 13:46:35,15.08881861,0.0001287,53.213,124.1569,88.7434,271.3706,0.0017615,0.0002789,0.0,0 STARLINK-4132,1 53252U 22086L   23057.57401922  .00027890  00000-0  17615-2 0  9990,2 53252  53.2130 124.1569 0001287  88.7434 271.3706 15.08881861 33944,6917.752,95.435,540.508,538.727,0.0
53252.0,STARLINK-4132,PAYLOAD,2023-02-26 16:57:21,15.08891825,0.0001279,53.2134,123.562,88.1884,271.9255,0.0018623,0.00029517,0.0,0 STARLINK-4132,1 53252U 22086L   23057.70649460  .00029517  00000-0  18623-2 0  9994,2 53252  53.2134 123.5620 0001279  88.1884 271.9255 15.08891825 33769,6917.722,95.434,540.472,538.702,0.0
53252.0,STARLINK-4132,PAYLOAD,2023-02-26 21:43:31,15.08834875,9.23e-05,53.2141,122.6705,128.61,231.4975,-0.00063463,-0.00010372,0.0,0 STARLINK-4132,1 53252U 22086L   23057.90522077 -.00010372  00000-0 -63463-3 0  9994,2 53252  53.2141 122.6705 0000923 128.6100 231.4975 15.08834875 33994,6917.896,95.438,540.4,539.123,0.0
53252.0,STARLINK-4132,PAYLOAD,2023-02-27 04:05:03,15.08827288,9.76e-05,53.2143,121.4801,127.8578,232.2503,5.4755e-05,5.84e-06,0.0,0 STARLINK-4132,1 53252U 22086L   23058.17018431  .00000584  00000-0  54755-4 0  9995,2 53252  53.2143 121.4801 0000976 127.8578 232.2503 15.08827288 33837,6917.919,95.438,540.459,539.109,0.0
53252.0,STARLINK-4132,PAYLOAD,2023-02-27 15:12:45,15.08912317,0.0001216,53.2132,119.4,107.6268,252.4857,0.0067495,0.00109012,0.0,0 STARLINK-4132,1 53252U 22086L   23058.63386092  .00109012  00000-0  67495-2 0  9996,2 53252  53.2132 119.4000 0001216 107.6268 252.4857 15.08912317 33905,6917.659,95.433,540.366,538.683,0.0
53252.0,STARLINK-4132,PAYLOAD,2023-02-27 21:34:18,15.08854154,0.0001435,53.2145,118.2075,112.8417,247.2727,0.0013713,0.00021612,0.0,0 STARLINK-4132,1 53252U 22086L   23058.89882276  .00021612  00000-0  13713-2 0  9992,2 53252  53.2145 118.2075 0001435 112.8417 247.2727 15.08854154 34144,6917.837,95.437,540.695,538.709,0.0
53252.0,STARLINK-4132,PAYLOAD,2023-02-28 03:55:50,15.08876502,0.0001617,53.2139,117.0196,103.8602,256.257,0.0023278,0.00036991,0.0,0 STARLINK-4132,1 53252U 22086L   23059.16377916  .00036991  00000-0  23278-2 0  9996,2 53252  53.2139 117.0196 0001617 103.8602 256.2570 15.08876502 33984,6917.769,95.435,540.752,538.515,0.0
53252.0,STARLINK-4132,PAYLOAD,2023-02-28 10:17:22,15.08885611,0.0001284,53.2147,115.8304,103.7906,256.3229,0.0023903,0.00038007,0.0,0 STARLINK-4132,1 53252U 22086L   23059.42873299  .00038007  00000-0  23903-2 0  9995,2 53252  53.2147 115.8304 0001284 103.7906 256.3229 15.08885611 34227,6917.741,95.435,540.494,538.718,0.0
53252.0,STARLINK-4132,PAYLOAD,2023-02-28 15:03:31,15.08885765,0.0001409,53.2138,114.9392,88.9112,271.2041,0.0015706,0.00024828,0.0,0 STARLINK-4132,1 53252U 22086L   23059.62744893  .00024828  00000-0  15706-2 0  9992,2 53252  53.2138 114.9392 0001409  88.9112 271.2041 15.08885765 34257,6917.741,95.435,540.58,538.631,0.0
53252.0,STARLINK-4132,PAYLOAD,2023-03-01 03:46:38,15.08785338,0.0001816,53.2141,112.56,127.8475,232.2681,0.00042491,6.471e-05,0.0,0 STARLINK-4132,1 53252U 22086L   23060.15739570  .00006471  00000-0  42491-3 0  9994,2 53252  53.2141 112.5600 0001816 127.8475 232.2681 15.08785338 34133,6918.047,95.441,541.169,538.656,0.0
53252.0,STARLINK-4132,PAYLOAD,2023-03-01 10:08:12,15.0877262,0.0001148,53.2154,111.3697,141.7681,218.3393,0.0014727,0.00023184,0.0,0 STARLINK-4132,1 53252U 22086L   23060.42236828  .00023184  00000-0  14727-2 0  9992,2 53252  53.2154 111.3697 0001148 141.7681 218.3393 15.08772620 34171,6918.086,95.442,540.746,539.157,0.0
53252.0,STARLINK-4132,PAYLOAD,2023-03-01 19:40:32,15.08818982,6.37e-05,53.2149,109.5853,97.9757,262.1308,0.0029176,0.00046425,0.0,0 STARLINK-4132,1 53252U 22086L   23060.81981842  .00046425  00000-0  29176-2 0  9995,2 53252  53.2149 109.5853 0000637  97.9757 262.1308 15.08818982 34238,6917.945,95.439,540.25,539.369,0.0
53252.0,STARLINK-4132,PAYLOAD,2023-03-02 17:55:31,15.09462367,1.8e-05,53.2147,105.42,322.2035,37.8945,0.012788,0.00213063,0.0,0 STARLINK-4132,1 53252U 22086L   23061.74689360  .00213063  00000-0  12788-1 0  9992,2 53252  53.2147 105.4200 0000180 322.2035  37.8945 15.09462367 34375,6915.979,95.398,537.968,537.719,0.0
53252.0,STARLINK-4132,PAYLOAD,2023-03-03 08:13:19,15.10106936,0.0001009,53.2149,102.7443,84.006,276.1047,0.01137,0.00192214,0.0,0 STARLINK-4132,1 53252U 22086L   23062.34258245  .00192214  00000-0  11370-1 0  9993,2 53252  53.2149 102.7443 0001009  84.0060 276.1047 15.10106936 34468,6914.011,95.357,536.573,535.178,0.0
53252.0,STARLINK-4132,PAYLOAD,2023-03-03 09:48:36,15.10155026,0.000166,53.2148,102.4466,127.9382,232.1761,0.010664,0.00180191,0.0,0 STARLINK-4132,1 53252U 22086L   23062.40875931  .00180191  00000-0  10664-1 0  9993,2 53252  53.2148 102.4466 0001660 127.9382 232.1761 15.10155026 34476,6913.864,95.354,536.876,534.581,0.0
53252.0,STARLINK-4132,PAYLOAD,2023-03-03 22:00:00,15.1044323,0.0001109,53.2137,100.1586,84.7548,158.6762,0.0018817,0.00031142,0.0,0 STARLINK-4132,1 53252U 22086L   23062.91667824  .00031142  00000-0  18817-2 0  9999,2 53252  53.2137 100.1586 0001109  84.7548 158.6762 15.10443230 34542,6912.984,95.336,535.616,534.083,0.0
53252.0,STARLINK-4132,PAYLOAD,2023-03-04 08:00:01,15.10561951,0.0001394,53.2134,98.2846,89.2751,261.1043,-0.0077756,-0.00127756,0.0,0 STARLINK-4132,1 53252U 22086L   23063.33334491 -.00127756  00000-0 -77756-2 0  9993,2 53252  53.2134  98.2846 0001394  89.2751 261.1043 15.10561951 34618,6912.622,95.329,535.451,533.523,0.0
